NORAD_CAT_ID,OBJECT_NAME,OBJECT_TYPE,EPOCH,MEAN_MOTION,ECCENTRICITY,INCLINATION,RA_OF_ASC_NODE,ARG_OF_PERICENTER,MEAN_ANOMALY,BSTAR,MEAN_MOTION_DOT,MEAN_MOTION_DDOT,TLE_LINE0,TLE_LINE1,TLE_LINE2,SEMIMAJOR_AXIS,PERIOD,APOGEE,PERIGEE,DECAYED
52862.0,STARLINK-4010,PAYLOAD,2024-04-15 14:29:34,15.08847324,0.0001646,53.2174,255.5023,70.2084,289.9086,0.00011876,1.603e-05,0.0,0 STARLINK-4010,1 52862U 22062AJ  24106.60387577  .00001603  00000-0  11876-3 0  9997,2 52862  53.2174 255.5023 0001646  70.2084 289.9086 15.08847324101294,6917.858,95.437,540.862,538.584,0.0
52862.0,STARLINK-4010,PAYLOAD,2024-04-15 19:15:44,15.08846775,0.0001615,53.2172,254.6113,71.2329,288.8839,0.00010544,1.391e-05,0.0,0 STARLINK-4010,1 52862U 22062AJ  24106.80259546  .00001391  00000-0  10544-3 0  9998,2 52862  53.2172 254.6113 0001615  71.2329 288.8839 15.08846775101812,6917.86,95.437,540.842,538.607,0.0
52862.0,STARLINK-4010,PAYLOAD,2024-04-16 03:12:39,15.08847451,0.0001585,53.2168,253.1246,73.1301,286.9865,0.00034763,5.25e-05,0.0,0 STARLINK-4010,1 52862U 22062AJ  24107.13379523  .00005250  00000-0  34763-3 0  9990,2 52862  53.2168 253.1246 0001585  73.1301 286.9865 15.08847451101376,6917.858,95.437,540.819,538.626,0.0
52862.0,STARLINK-4010,PAYLOAD,2024-04-16 15:55:45,15.0882007,8.75e-05,53.2172,250.7429,85.6672,274.442,0.00024593,3.626e-05,0.0,0 STARLINK-4010,1 52862U 22062AJ  24107.66371598  .00003626  00000-0  24593-3 0  9997,2 52862  53.2172 250.7429 0000875  85.6672 274.4420 15.08820070101947,6917.941,95.439,540.412,539.201,0.0
52862.0,STARLINK-4010,PAYLOAD,2024-04-17 14:11:09,15.08829692,9.15e-05,53.2145,246.5817,97.1381,262.9715,0.0002609,3.866e-05,0.0,0 STARLINK-4010,1 52862U 22062AJ  24108.59108213  .00003866  00000-0  26090-3 0  9992,2 52862  53.2145 246.5817 0000915  97.1381 262.9715 15.08829692101590,6917.912,95.438,540.41,539.144,0.0
52862.0,STARLINK-4010,PAYLOAD,2024-04-17 15:46:32,15.08825371,0.0001131,53.2158,246.2845,100.2365,259.8755,0.00014301,1.988e-05,0.0,0 STARLINK-4010,1 52862U 22062AJ  24108.65732358  .00001988  00000-0  14301-3 0  9997,2 52862  53.2158 246.2845 0001131 100.2365 259.8755 15.08825371101602,6917.925,95.438,540.573,539.008,0.0
52862.0,STARLINK-4010,PAYLOAD,2024-04-18 12:26:33,15.08833148,0.0001006,53.2149,242.4189,84.4811,275.6296,0.00017224,2.454e-05,0.0,0 STARLINK-4010,1 52862U 22062AJ  24109.51844777  .00002454  00000-0  17224-3 0  9998,2 52862  53.2149 242.4189 0001006  84.4811 275.6296 15.08833148102227,6917.901,95.438,540.462,539.07,0.0
52862.0,STARLINK-4010,PAYLOAD,2024-04-18 14:01:56,15.08835714,0.0001125,53.2154,242.1213,78.8423,281.2695,0.00022774,3.338e-05,0.0,0 STARLINK-4010,1 52862U 22062AJ  24109.58468685  .00003338  00000-0  22774-3 0  9993,2 52862  53.2154 242.1213 0001125  78.8423 281.2695 15.08835714101749,6917.893,95.438,540.537,538.98,0.0
52862.0,STARLINK-4010,PAYLOAD,2024-04-19 12:17:19,15.08862385,0.000119,53.2163,237.9552,118.2918,241.8194,0.0004851,7.446e-05,0.0,0 STARLINK-4010,1 52862U 22062AJ  24110.51202555  .00007446  00000-0  48510-3 0  9990,2 52862  53.2163 237.9552 0001190 118.2918 241.8194 15.08862385102377,6917.812,95.436,540.5,538.854,0.0
52862.0,STARLINK-4010,PAYLOAD,2024-04-19 13:52:43,15.08830722,0.0001187,53.2158,237.6611,99.2843,260.8284,2.753e-05,1.5e-06,0.0,0 STARLINK-4010,1 52862U 22062AJ  24110.57828394  .00000150  00000-0  27530-4 0  9996,2 52862  53.2158 237.6611 0001187  99.2843 260.8284 15.08830722101892,6917.909,95.438,540.595,538.953,0.0
52862.0,STARLINK-4010,PAYLOAD,2024-04-19 15:28:05,15.0883359,0.00014,53.2159,237.3669,107.2083,252.9063,-0.00024348,-4.16e-05,0.0,0 STARLINK-4010,1 52862U 22062AJ  24110.64451109 -.00004160  00000-0 -24348-3 0  9990,2 52862  53.2159 237.3669 0001400 107.2083 252.9063 15.08833590102396,6917.9,95.438,540.733,538.796,0.0
52862.0,STARLINK-4010,PAYLOAD,2024-04-20 12:08:08,15.08813493,0.0001677,53.2179,233.5015,108.2427,251.8747,-0.00043983,-7.276e-05,0.0,0 STARLINK-4010,1 52862U 22062AJ  24111.50565683 -.00007276  00000-0 -43983-3 0  9996,2 52862  53.2179 233.5015 0001677 108.2427 251.8747 15.08813493102522,6917.961,95.439,540.987,538.666,0.0
52862.0,STARLINK-4010,PAYLOAD,2024-04-20 13:43:32,15.08811918,0.0001643,53.2177,233.2037,106.9404,253.1769,-0.00045391,-7.499e-05,0.0,0 STARLINK-4010,1 52862U 22062AJ  24111.57189840 -.00007499  00000-0 -45391-3 0  9992,2 52862  53.2177 233.2037 0001643 106.9404 253.1769 15.08811918102040,6917.966,95.439,540.968,538.695,0.0
52862.0,STARLINK-4010,PAYLOAD,2024-04-20 18:29:41,15.088102,0.0001563,53.2175,232.3081,102.0149,258.1019,-0.00041589,-6.895e-05,0.0,0 STARLINK-4010,1 52862U 22062AJ  24111.77062258 -.00006895  00000-0 -41589-3 0  9991,2 52862  53.2175 232.3081 0001563 102.0149 258.1019 15.08810200102070,6917.971,95.439,540.918,538.755,0.0
52862.0,STARLINK-4010,PAYLOAD,2024-04-21 13:34:19,15.08836026,0.0002377,53.218,228.7421,75.5724,284.5532,0.00037878,5.745e-05,0.0,0 STARLINK-4010,1 52862U 22062AJ  24112.56550260  .00005745  00000-0  37878-3 0  9991,2 52862  53.2180 228.7421 0002377  75.5724 284.5532 15.08836026102190,6917.893,95.438,541.402,538.113,0.0
52862.0,STARLINK-4010,PAYLOAD,2024-04-21 18:20:27,15.08862879,0.0001607,53.2166,227.8463,123.7388,236.3757,0.00086528,0.00013518,0.0,0 STARLINK-4010,1 52862U 22062AJ  24112.76421000  .00013518  00000-0  86528-3 0  9995,2 52862  53.2166 227.8463 0001607 123.7388 236.3757 15.08862879102714,6917.81,95.436,540.787,538.564,0.0
52862.0,STARLINK-4010,PAYLOAD,2024-04-22 15:00:29,15.08838101,0.0001344,53.2171,223.9763,93.717,266.3976,0.00040247,6.123e-05,0.0,0 STARLINK-4010,1 52862U 22062AJ  24113.62534176  .00006123  00000-0  40247-3 0  9992,2 52862  53.2171 223.9763 0001344  93.7170 266.3976 15.08838101102844,6917.886,95.438,540.681,538.821,0.0
52862.0,STARLINK-4010,PAYLOAD,2024-04-23 13:15:53,15.08850102,0.0001549,53.2172,219.8219,76.1462,283.9703,-0.00015872,-2.814e-05,0.0,0 STARLINK-4010,1 52862U 22062AJ  24114.55270386 -.00002814  00000-0 -15872-3 0  9996,2 52862  53.2172 219.8219 0001549  76.1462 283.9703 15.08850102102490,6917.85,95.437,540.786,538.643,0.0
52862.0,STARLINK-4010,PAYLOAD,2024-04-24 13:06:40,15.08841816,0.0001722,53.2175,215.36,67.1628,292.9546,0.0001451,2.022e-05,0.0,0 STARLINK-4010,1 52862U 22062AJ  24115.54629717  .00002022  00000-0  14510-3 0  9999,2 52862  53.2175 215.3600 0001722  67.1628 292.9546 15.08841816102649,6917.875,95.437,540.931,538.549,0.0
52862.0,STARLINK-4010,PAYLOAD,2024-04-25 12:57:27,15.08834862,0.0001453,53.2179,210.897,105.5956,254.5196,-3.5961e-06,-3.45e-06,0.0,0 STARLINK-4010,1 52862U 22062AJ  24116.53990321 -.00000345  00000-0 -35961-5 0  9994,2 52862  53.2179 210.8970 0001453 105.5956 254.5196 15.08834862103284,6917.896,95.438,540.766,538.756,0.0
52862.0,STARLINK-4010,PAYLOAD,2024-04-26 12:48:14,15.08839353,0.0001325,53.2172,206.4365,86.2784,273.836,3.1112e-05,2.07e-06,0.0,0 STARLINK-4010,1 52862U 22062AJ  24117.53350175  .00000207  00000-0  31112-4 0  9990,2 52862  53.2172 206.4365 0001325  86.2784 273.8360 15.08839353102947,6917.882,95.438,540.664,538.831,0.0
52862.0,STARLINK-4010,PAYLOAD,2024-04-27 12:39:01,15.08838118,0.000133,53.2178,201.9798,92.7,267.4145,0.00013506,1.862e-05,0.0,0 STARLINK-4010,1 52862U 22062AJ  24118.52709824  .00001862  00000-0  13506-3 0  9993,2 52862  53.2178 201.9798 0001330  92.7000 267.4145 15.08838118103581,6917.886,95.438,540.671,538.831,0.0
52862.0,STARLINK-4010,PAYLOAD,2024-04-27 22:11:18,15.08854921,0.0001254,53.2179,200.193,92.106,268.0076,0.00021713,3.171e-05,0.0,0 STARLINK-4010,1 52862U 22062AJ  24118.92452222  .00003171  00000-0  21713-3 0  9998,2 52862  53.2179 200.1930 0001254  92.1060 268.0076 15.08854921103159,6917.835,95.437,540.567,538.832,0.0
52862.0,STARLINK-4010,PAYLOAD,2024-04-28 12:29:49,15.08822811,0.0001413,53.2183,197.5221,97.2931,262.8222,-2.0084e-05,-6.07e-06,0.0,0 STARLINK-4010,1 52862U 22062AJ  24119.52071356 -.00000607  00000-0 -20084-4 0  9994,2 52862  53.2183 197.5221 0001413  97.2931 262.8222 15.08822811103738,6917.933,95.439,540.775,538.82,0.0
52862.0,STARLINK-4010,PAYLOAD,2024-04-28 22:02:06,15.08852477,0.0001248,53.2183,195.7333,78.0636,282.0496,-3.719e-05,-8.8e-06,0.0,0 STARLINK-4010,1 52862U 22062AJ  24119.91813406 -.00000880  00000-0 -37190-4 0  9996,2 52862  53.2183 195.7333 0001248  78.0636 282.0496 15.08852477103308,6917.842,95.437,540.571,538.844,0.0
52862.0,STARLINK-4010,PAYLOAD,2024-04-29 12:20:36,15.08832558,0.0001314,53.2167,193.0579,93.5288,266.5855,1.5248e-06,-2.64e-06,0.0,0 STARLINK-4010,1 52862U 22062AJ  24120.51430893 -.00000264  00000-0  15248-5 0  9995,2 52862  53.2167 193.0579 0001314  93.5288 266.5855 15.08832558103889,6917.903,95.438,540.677,538.859,0.0
52862.0,STARLINK-4010,PAYLOAD,2024-04-29 13:55:59,15.08834233,0.0001281,53.2167,192.7607,90.459,269.6549,3.0301e-07,-2.83e-06,0.0,0 STARLINK-4010,1 52862U 22062AJ  24120.58054816 -.00000283  00000-0  30301-6 0  9998,2 52862  53.2167 192.7607 0001281  90.4590 269.6549 15.08834233103406,6917.898,95.438,540.649,538.877,0.0
52862.0,STARLINK-4010,PAYLOAD,2024-04-29 21:52:54,15.08842835,0.0001271,53.2166,191.2736,87.3794,272.7344,-2.2789e-06,-3.24e-06,0.0,0 STARLINK-4010,1 52862U 22062AJ  24120.91174307 -.00000324  00000-0 -22789-5 0  9990,2 52862  53.2166 191.2736 0001271  87.3794 272.7344 15.08842835103452,6917.872,95.437,540.616,538.857,0.0
52862.0,STARLINK-4010,PAYLOAD,2024-04-30 12:11:22,15.08838419,0.0001299,53.2166,188.5972,81.3025,278.8114,0.00022431,3.284e-05,0.0,0 STARLINK-4010,1 52862U 22062AJ  24121.50790118  .00003284  00000-0  22431-3 0  9998,2 52862  53.2166 188.5972 0001299  81.3025 278.8114 15.08838419104034,6917.885,95.438,540.649,538.852,0.0
52862.0,STARLINK-4010,PAYLOAD,2024-04-30 13:46:45,15.08838239,0.0001374,53.2165,188.2999,83.0086,277.1063,0.00025799,3.82e-05,0.0,0 STARLINK-4010,1 52862U 22062AJ  24121.57414072  .00003820  00000-0  25799-3 0  9993,2 52862  53.2165 188.2999 0001374  83.0086 277.1063 15.08838239103550,6917.886,95.438,540.701,538.8,0.0
